BEIJING 1               
1 28890U 05043A   22207.56790155  .00000176  00000+0  44836-4 0  9992
2 28890  98.1226 329.2614 0016188  55.3308 304.9422 14.61472171892852
HJ-1A                   
1 33320U 08041A   22207.55487552  .00000428  00000+0  66049-4 0  9990
2 33320  97.6752 238.7757 0022486 103.5392 256.8323 14.77879843748166
HJ-1B                   
1 33321U 08041B   22207.50365723  .00000907  00000+0  13184-3 0  9994
2 33321  97.6925 242.3710 0035536 121.8470 238.6208 14.77800299748157
YAOGAN 4                
1 33446U 08061A   22207.38906327  .00000338  00000+0  54475-4 0  9998
2 33446  97.8178 146.3361 0016555  13.4125 346.7523 14.77418140735343
DEIMOS-1                
1 35681U 09041A   22207.54875823  .00000312  00000+0  56950-4 0  9996
2 35681  97.7113  56.6118 0002898  93.4516 266.7029 14.72080764697525
UK-DMC 2                
1 35683U 09041C   22207.45539071  .00000514  00000+0  90237-4 0  9990
2 35683  97.7006  18.4245 0001705  97.6182 262.5221 14.71450742697249
RISAT 1                 
1 38248U 12017A   22207.37750012  .00002594  00000+0  15407-3 0  9993
2 38248  97.5517 218.3241 0005506 116.0890 244.0908 15.12177630564727
DMC3-FM1                
1 40715U 15032A   22207.48813360  .00000399  00000+0  56615-4 0  9991
2 40715  97.8431  93.5321 0006953  41.4339 318.7389 14.82155851379076
DMC3-FM2                
1 40716U 15032B   22207.44333120  .00000397  00000+0  56408-4 0  9997
2 40716  97.8472  94.1503 0008885  42.7497 317.4390 14.82147477379079
DMC3-FM3                
1 40717U 15032C   22207.46569945  .00000403  00000+0  57126-4 0  9992
2 40717  97.8504  95.0999 0010838  39.9553 320.2446 14.82175746379071
